{
  "type": "FeatureCollection",
  "features": [
    {
      "type": "Feature",
      "properties": {
        "norad_id": 29945,
        "name": "FENGYUN 1C DEB",
        "group": "fengyun-1c-debris",
        "lat": -43.85776646525221,
        "lon": -164.25085833985722,
        "alt_km": 883.9212311533083,
        "timestamp": "2025-12-27T02:10:16.461950+00:00",
        "meta_object_name": "FENGYUN 1C DEB",
        "meta_object_id": "1999-025JT",
        "meta_epoch": "2025-12-26T20:48:11.793888",
        "meta_mean_motion": 14.05579592,
        "meta_eccentricity": 0.0030275,
        "meta_inclination": 98.7911,
        "meta_ra_of_asc_node": 24.0836,
        "meta_arg_of_pericenter": 322.4499,
        "meta_mean_anomaly": 211.1844,
        "meta_ephemeris_type": 0,
        "meta_classification_type": "U",
        "meta_norad_cat_id": 29945,
        "meta_element_set_no": 999,
        "meta_rev_at_epoch": 97176,
        "meta_bstar": 5.8293e-05,
        "meta_mean_motion_dot": 5.2e-07,
        "meta_mean_motion_ddot": 0,
        "tle_line1": "1 29945U 99025JT  25360.86680317  .00000052  00000+0  58293-4 0  9996",
        "tle_line2": "2 29945  98.7911  24.0836 0030275 322.4499 211.1844 14.05579592971767"
      },
      "geometry": {
        "type": "Point",
        "coordinates": [
          -164.25085833985722,
          -43.85776646525221
        ]
      }
    },
    {
      "type": "Feature",
      "properties": {
        "norad_id": 29946,
        "name": "FENGYUN 1C DEB",
        "group": "fengyun-1c-debris",
        "lat": 25.359937916759474,
        "lon": -11.256275321189161,
        "alt_km": 856.8804100312454,
        "timestamp": "2025-12-27T02:10:16.461960+00:00",
        "meta_object_name": "FENGYUN 1C DEB",
        "meta_object_id": "1999-025JU",
        "meta_epoch": "2025-12-26T18:21:04.464000",
        "meta_mean_motion": 14.08267463,
        "meta_eccentricity": 0.0080103,
        "meta_inclination": 98.7809,
        "meta_ra_of_asc_node": 352.6279,
        "meta_arg_of_pericenter": 303.7325,
        "meta_mean_anomaly": 230.1619,
        "meta_ephemeris_type": 0,
        "meta_classification_type": "U",
        "meta_norad_cat_id": 29946,
        "meta_element_set_no": 999,
        "meta_rev_at_epoch": 97244,
        "meta_bstar": 0.00020992,
        "meta_mean_motion_dot": 3.26e-06,
        "meta_mean_motion_ddot": 0,
        "tle_line1": "1 29946U 99025JU  25360.76463500  .00000326  00000+0  20992-3 0  9997",
        "tle_line2": "2 29946  98.7809 352.6279 0080103 303.7325 230.1619 14.08267463972441"
      },
      "geometry": {
        "type": "Point",
        "coordinates": [
          -11.256275321189161,
          25.359937916759474
        ]
      }
    },
    {
      "type": "Feature",
      "properties": {
        "norad_id": 29947,
        "name": "FENGYUN 1C DEB",
        "group": "fengyun-1c-debris",
        "lat": 78.40482877869627,
        "lon": -99.47220825788563,
        "alt_km": 847.1050995240876,
        "timestamp": "2025-12-27T02:10:16.461970+00:00",
        "meta_object_name": "FENGYUN 1C DEB",
        "meta_object_id": "1999-025JV",
        "meta_epoch": "2025-12-26T14:16:47.092800",
        "meta_mean_motion": 14.03083625,
        "meta_eccentricity": 0.004111,
        "meta_inclination": 98.8367,
        "meta_ra_of_asc_node": 30.7444,
        "meta_arg_of_pericenter": 82.7174,
        "meta_mean_anomaly": 33.3378,
        "meta_ephemeris_type": 0,
        "meta_classification_type": "U",
        "meta_norad_cat_id": 29947,
        "meta_element_set_no": 999,
        "meta_rev_at_epoch": 96944,
        "meta_bstar": 0.0001746,
        "meta_mean_motion_dot": 2.31e-06,
        "meta_mean_motion_ddot": 0,
        "tle_line1": "1 29947U 99025JV  25360.59498950  .00000231  00000+0  17460-3 0  9997",
        "tle_line2": "2 29947  98.8367  30.7444 0041110  82.7174  33.3378 14.03083625969443"
      },
      "geometry": {
        "type": "Point",
        "coordinates": [
          -99.47220825788563,
          78.40482877869627
        ]
      }
    },
    {
      "type": "Feature",
      "properties": {
        "norad_id": 29948,
        "name": "FENGYUN 1C DEB",
        "group": "fengyun-1c-debris",
        "lat": 55.18241951408758,
        "lon": 179.8124627258658,
        "alt_km": 845.0368022833181,
        "timestamp": "2025-12-27T02:10:16.462040+00:00",
        "meta_object_name": "FENGYUN 1C DEB",
        "meta_object_id": "1999-025JW",
        "meta_epoch": "2025-12-26T19:19:28.155072",
        "meta_mean_motion": 14.06197833,
        "meta_eccentricity": 0.008425,
        "meta_inclination": 98.8253,
        "meta_ra_of_asc_node": 346.6265,
        "meta_arg_of_pericenter": 193.8208,
        "meta_mean_anomaly": 287.4544,
        "meta_ephemeris_type": 0,
        "meta_classification_type": "U",
        "meta_norad_cat_id": 29948,
        "meta_element_set_no": 999,
        "meta_rev_at_epoch": 97174,
        "meta_bstar": 1.6328e-05,
        "meta_mean_motion_dot": -1.5e-07,
        "meta_mean_motion_ddot": 0,
        "tle_line1": "1 29948U 99025JW  25360.80518698 -.00000015  00000+0  16328-4 0  9998",
        "tle_line2": "2 29948  98.8253 346.6265 0084250 193.8208 287.4544 14.06197833971745"
      },
      "geometry": {
        "type": "Point",
        "coordinates": [
          179.8124627258658,
          55.18241951408758
        ]
      }
    },
    {
      "type": "Feature",
      "properties": {
        "norad_id": 29949,
        "name": "FENGYUN 1C DEB",
        "group": "fengyun-1c-debris",
        "lat": 68.01949602501892,
        "lon": -141.21153295931464,
        "alt_km": 878.5191557323233,
        "timestamp": "2025-12-27T02:10:16.462054+00:00",
        "meta_object_name": "FENGYUN 1C DEB",
        "meta_object_id": "1999-025JX",
        "meta_epoch": "2025-12-26T14:14:40.720704",
        "meta_mean_motion": 14.0682828,
        "meta_eccentricity": 0.0023056,
        "meta_inclination": 98.7617,
        "meta_ra_of_asc_node": 15.8443,
        "meta_arg_of_pericenter": 264.8936,
        "meta_mean_anomaly": 210.0229,
        "meta_ephemeris_type": 0,
        "meta_classification_type": "U",
        "meta_norad_cat_id": 29949,
        "meta_element_set_no": 999,
        "meta_rev_at_epoch": 97302,
        "meta_bstar": 5.4215e-06,
        "meta_mean_motion_dot": -3.4e-07,
        "meta_mean_motion_ddot": 0,
        "tle_line1": "1 29949U 99025JX  25360.59352686 -.00000034  00000+0  54215-5 0  9997",
        "tle_line2": "2 29949  98.7617  15.8443 0023056 264.8936 210.0229 14.06828280973028"
      },
      "geometry": {
        "type": "Point",
        "coordinates": [
          -141.21153295931464,
          68.01949602501892
        ]
      }
    },
    {
      "type": "Feature",
      "properties": {
        "norad_id": 29950,
        "name": "FENGYUN 1C DEB",
        "group": "fengyun-1c-debris",
        "lat": 52.46706734240967,
        "lon": -136.68379292238203,
        "alt_km": 846.6883668734654,
        "timestamp": "2025-12-27T02:10:16.462065+00:00",
        "meta_object_name": "FENGYUN 1C DEB",
        "meta_object_id": "1999-025JY",
        "meta_epoch": "2025-12-26T15:53:50.737056",
        "meta_mean_motion": 14.1034038,
        "meta_eccentricity": 0.0032882,
        "meta_inclination": 98.7396,
        "meta_ra_of_asc_node": 31.3497,
        "meta_arg_of_pericenter": 201.9364,
        "meta_mean_anomaly": 272.7848,
        "meta_ephemeris_type": 0,
        "meta_classification_type": "U",
        "meta_norad_cat_id": 29950,
        "meta_element_set_no": 999,
        "meta_rev_at_epoch": 97487,
        "meta_bstar": 0.00010136,
        "meta_mean_motion_dot": 1.38e-06,
        "meta_mean_motion_ddot": 0,
        "tle_line1": "1 29950U 99025JY  25360.66239279  .00000138  00000+0  10136-3 0  9995",
        "tle_line2": "2 29950  98.7396  31.3497 0032882 201.9364 272.7848 14.10340380974871"
      },
      "geometry": {
        "type": "Point",
        "coordinates": [
          -136.68379292238203,
          52.46706734240967
        ]
      }
    },
    {
      "type": "Feature",
      "properties": {
        "norad_id": 29953,
        "name": "FENGYUN 1C DEB",
        "group": "fengyun-1c-debris",
        "lat": -47.66426023751392,
        "lon": -2.584986677198284,
        "alt_km": 924.0542530819976,
        "timestamp": "2025-12-27T02:10:16.462075+00:00",
        "meta_object_name": "FENGYUN 1C DEB",
        "meta_object_id": "1999-025KB",
        "meta_epoch": "2025-12-26T11:28:14.277792",
        "meta_mean_motion": 13.90861666,
        "meta_eccentricity": 0.0105696,
        "meta_inclination": 98.9391,
        "meta_ra_of_asc_node": 346.8775,
        "meta_arg_of_pericenter": 228.884,
        "meta_mean_anomaly": 256.2425,
        "meta_ephemeris_type": 0,
        "meta_classification_type": "U",
        "meta_norad_cat_id": 29953,
        "meta_element_set_no": 999,
        "meta_rev_at_epoch": 96053,
        "meta_bstar": 0.00042298,
        "meta_mean_motion_dot": 5.11e-06,
        "meta_mean_motion_ddot": 0,
        "tle_line1": "1 29953U 99025KB  25360.47794303  .00000511  00000+0  42298-3 0  9990",
        "tle_line2": "2 29953  98.9391 346.8775 0105696 228.8840 256.2425 13.90861666960533"
      },
      "geometry": {
        "type": "Point",
        "coordinates": [
          -2.584986677198284,
          -47.66426023751392
        ]
      }
    }
  ]
}